GLOBALSTAR M066         
1 32265U 07048C   25217.57467388 -.00000045  00000+0  42254-3 0  9991
2 32265  51.9570 243.9291 0004278  81.1779  92.0944 12.30181869822325
GLOBALSTAR M079         
1 37188U 10054A   25217.13698126 -.00000101  00000+0  17416-4 0  9995
2 37188  52.0064 350.7757 0000949  86.5193  85.5884 12.62265615683319
GLOBALSTAR M074         
1 37189U 10054B   25217.53909426 -.00000108  00000+0 -22507-4 0  9993
2 37189  52.0042 348.8686 0000909 107.9471 330.7398 12.62266748683366
GLOBALSTAR M076         
1 37190U 10054C   25217.11036205 -.00000092  00000+0  65421-4 0  9998
2 37190  52.0054 350.3477 0001047  97.2099  73.0010 12.62264323683318
GLOBALSTAR M077         
1 37191U 10054D   25216.69947149 -.00000095  00000+0  47463-4 0  9998
2 37191  52.0088 308.4684 0000662 114.5995  49.7080 12.62322404683277
